GALAXY 15               
1 28884C 05041A   20216.00000000  .00000160  00000-0  00000-0 0  2160
2 28884   0.0532 259.8426 0002224 228.1699  50.9853  1.00270562    19
GALAXY 15               
1 28884C 05041A   20219.00000000  .00000181  00000-0  00000-0 0  2199
2 28884   0.0499 271.7745 0002115 225.6826  44.4984  1.00271724    15
GALAXY 16               
1 29236C 06023A   20216.00000000 -.00000040  00000-0  00000-0 0  2161
2 29236   0.0161 328.3659 0003308 171.0101  73.6420  1.00270126    15
GALAXY 16           [PM]
1 29236C 06023A   20217.96467593 -.00000039  00000-0  00000-0 0  2170
2 29236   0.0000 159.4697 0003220 341.7695  60.9866  1.00272571    18
GALAXY 16               
1 29236C 06023A   20219.00000000 -.00000042  00000-0  00000-0 0  2199
2 29236   0.0211 213.3296 0003191 291.0801  71.5590  1.00272604    19
GALAXY 16           [PM]
1 29236C 06023A   20222.66814815 -.00000033  00000-0  00000-0 0  2226
2 29236   0.0154 220.0610 0003030 295.4882 304.5877  1.00272191    17
GALAXY 17               
1 31307C 07016B   20216.00000000  .00000039  00000-0  00000-0 0  2163
2 31307   0.0063  36.3713 0003768  97.4561  87.1835  1.00274479    11
GALAXY 17               
1 31307C 07016B   20219.00000000 -.00000082  00000-0  00000-0 0  2198
2 31307   0.0035 155.0535 0003593 341.9066  87.0157  1.00272428    12
GALAXY 17           [PM]
1 31307C 07016B   20221.94513889 -.00000084  00000-0  00000-0 0  2213
2 31307   0.0098  62.8800 0003329  82.5086  61.7441  1.00272339    14
INTELSAT 11             
1 32253C 07044B   20216.00000000 -.00000191  00000-0  00000-0 0  2165
2 32253   0.0001 135.7217 0002180  13.8302 119.4857  1.00270638    15
INTELSAT 11         [PM]
1 32253C 07044B   20218.82353009 -.00000177  00000-0  00000-0 0  2183
2 32253   0.0004 116.5768 0002018  39.6570  52.0495  1.00273272    16
INTELSAT 11             
1 32253C 07044B   20219.00000000 -.00000225  00000-0  00000-0 0  2199
2 32253   0.0006 116.5420 0002062  40.5776 114.8674  1.00273516    18
HORIZONS 2              
1 32388C 07063B   20216.00000000 -.00000152  00000-0  00000-0 0  2162
2 32388   0.0391 270.8458 0003287 211.7895 274.2343  1.00270597    13
HORIZONS 2          [PM]
1 32388C 07063B   20218.95636574 -.00002354  00000-0  00000-0 0  2187
2 32388   0.0000 140.9053 0003195 352.6424 250.5144  1.00272315    15
HORIZONS 2              
1 32388C 07063B   20219.00000000 -.00000154  00000-0  00000-0 0  2190
2 32388   0.0390 271.6146 0003160 222.1727 266.0265  1.00273212    14
GALAXY 18               
1 32951C 08024A   20216.00000000  .00000086  00000-0  00000-0 0  2161
2 32951   0.0375 263.2393 0003364 229.7763  55.9941  1.00271464    16
GALAXY 18           [PM]
1 32951C 08024A   20218.55972222  .00000030  00000-0  00000-0 0  2188
2 32951   0.0388 260.4833 0003347 239.5644 252.9888  1.00271708    16
GALAXY 18               
1 32951C 08024A   20219.00000000 -.00003155  00000-0  00000-0 0  2198
2 32951   0.0000 143.1256 0003259 355.9414  52.9044  1.00271749    10
INTELSAT 25             
1 33153C 08034A   20216.00000000 -.00000128  00000-0  00000-0 0  2165
2 33153   0.0123 178.4554 0001061 344.5772 117.4804  1.00272993    16
INTELSAT 25         [PM]
1 33153C 08034A   20218.42604167 -.00000136  00000-0  00000-0 0  2188
2 33153   0.0367 228.6074 0001124 282.3500 285.3294  1.00272615    18
INTELSAT 25             
1 33153C 08034A   20219.00000000 -.00000137  00000-0  00000-0 0  2191
2 33153   0.0397 239.0619 0001185 285.0210 119.3953  1.00272390    15
GALAXY 19               
1 33376C 08045A   20216.00000000 -.00000048  00000-0  00000-0 0  2165
2 33376   0.0029  99.0242 0003637  34.7866  81.2061  1.00270926    10
GALAXY 19           [PM]
1 33376C 08045A   20218.90208333 -.00000049  00000-0  00000-0 0  2188
2 33376   0.0079 111.8019 0003502  28.6168  42.2102  1.00271783    13
GALAXY 19               
1 33376C 08045A   20219.00000000 -.00000048  00000-0  00000-0 0  2191
2 33376   0.0079 111.5855 0003511  28.9594  77.4305  1.00271857    11
INTELSAT 14             
1 36097C 09064A   20216.00000000 -.00000183  00000-0  00000-0 0  2160
2 36097   0.0178 106.0395 0002832  24.9896 135.9946  1.00271014    14
INTELSAT 14         [PM]
1 36097C 09064A   20218.73579861 -.00000180  00000-0  00000-0 0  2187
2 36097   0.0114 178.8705 0002498 313.1803  42.5318  1.00273793    17
INTELSAT 14             
1 36097C 09064A   20219.00000000 -.00000195  00000-0  00000-0 0  2199
2 36097   0.0106 177.8457 0002527 315.0121 137.0995  1.00273901    10
INTELSAT 15             
1 36106C 09067A   20216.00000000 -.00000095  00000-0  00000-0 0  2166
2 36106   0.0010  78.5314 0002667  52.2142 266.4190  1.00271841    17
INTELSAT 15         [PM]
1 36106C 09067A   20218.50670139 -.00000095  00000-0  00000-0 0  2181
2 36106   0.0046  94.2390 0002557  40.4796  87.3297  1.00272536    17
INTELSAT 15             
1 36106C 09067A   20219.00000000 -.00000095  00000-0  00000-0 0  2192
2 36106   0.0053  96.0771 0002554  41.9597 262.0873  1.00272968    11
INTELSAT 16             
1 36397C 10006A   20216.00000000 -.00000154  00000-0  00000-0 0  2169
2 36397   0.0000  85.9657 0002706  57.8005  92.0495  1.00271511    18
INTELSAT 16         [PM]
1 36397C 10006A   20218.90318287 -.00000155  00000-0  00000-0 0  2182
2 36397   0.0047 103.3097 0002573  45.9446  54.5678  1.00272967    13
INTELSAT 16             
1 36397C 10006A   20219.00000000 -.00000205  00000-0  00000-0 0  2192
2 36397   0.0048 103.1100 0002583  46.2485  89.4135  1.00273011    11
INTELSAT 17             
1 37238C 10065B   20216.00000000  .00000137  00000-0  00000-0 0  2169
2 37238   0.0301 203.7132 0003100 291.0029 243.3035  1.00271881    13
INTELSAT 17             
1 37238C 10065B   20219.00000000  .00000084  00000-0  00000-0 0  2196
2 37238   0.0478 269.4341 0003014 234.4507 237.1000  1.00272690    17
INTELSAT 17         [PM]
1 37238C 10065B   20219.50625000  .00000090  00000-0  00000-0 0  2191
2 37238   0.0466 272.1514 0003007 233.6935  57.8916  1.00270306    10
INTELSAT NEW DAWN       
1 37392C 11016A   20216.00000000  .00000243  00000-0  00000-0 0  2165
2 37392   0.0397 219.0215 0000248 290.1337 195.6724  1.00283849    14
INTELSAT NEW DAWN   [PM]
1 37392C 11016A   20218.53993056  .00000246  00000-0  00000-0 0  2182
2 37392   0.0205 166.5732 0000988 241.0671 134.0437  1.00268397    18
INTELSAT NEW DAWN       
1 37392C 11016A   20219.00000000  .00000246  00000-0  00000-0 0  2194
2 37392   0.0224 170.0832 0000784 242.3934 295.2815  1.00269135    11
INTELSAT NEW DAWN   [PM]
1 37392C 11016A   20222.23659722 -.00003443  00000-0  00000-0 0  2221
2 37392   0.0403 276.1243 0000454 111.0054  49.0187  1.00271088    10
INTELSAT 18             
1 37834C 11056A   20216.00000000  .00000141  00000-0  00000-0 0  2167
2 37834   0.0068  95.8406 0002471  37.8702 358.2982  1.00272051    10
INTELSAT 18             
1 37834C 11056A   20219.00000000 -.00000053  00000-0  00000-0 0  2196
2 37834   0.0359 261.7598 0002373 236.3406 356.8612  1.00271562    17
INTELSAT 18         [PM]
1 37834C 11056A   20225.60826389  .00000143  00000-0  00000-0 0  2251
2 37834   0.0025  89.9690 0001888  62.2196 208.2940  1.00271770    17
INTELSAT 22             
1 38098C 12011A   20216.00000000 -.00000037  00000-0  00000-0 0  2167
2 38098   0.0154 329.0604 0002671 176.4221 238.6371  1.00270284    18
INTELSAT 22         [PM]
1 38098C 12011A   20216.77559028  .00000027  00000-0  00000-0 0  2168
2 38098   0.0323 274.5705 0002740 231.6277 157.8981  1.00270955    18
INTELSAT 22             
1 38098C 12011A   20219.00000000  .00000072  00000-0  00000-0 0  2191
2 38098   0.0033 169.3894 0002700 343.9681 233.7155  1.00271318    19
INTELSAT 19             
1 38356C 12030A   20216.00000000 -.00000008  00000-0  00000-0 0  2163
2 38356   0.0473 254.8779 0003174 238.3444 344.7965  1.00270819    13
INTELSAT 19             
1 38356C 12030A   20219.00000000  .00000033  00000-0  00000-0 0  2196
2 38356   0.0040 109.2722 0003069  31.9179 339.7835  1.00271283    15
INTELSAT 19         [PM]
1 38356C 12030A   20222.42921296  .00000015  00000-0  00000-0 0  2229
2 38356   0.0216 276.8829 0002904 227.4686 134.5212  1.00273131    15
INTELSAT 20             
1 38740C 12043A   20216.00000000  .00000066  00000-0  00000-0 0  2167
2 38740   0.0157 124.5239 0001017  50.4859 205.5082  1.00270465    11
INTELSAT 20             
1 38740C 12043A   20219.00000000  .00000066  00000-0  00000-0 0  2193
2 38740   0.0141 135.3301 0001009  54.4025 193.7439  1.00270899    19
INTELSAT 20         [PM]
1 38740C 12043A   20219.39305556  .00000066  00000-0  00000-0 0  2199
2 38740   0.0105 124.1471 0001110  56.0194 345.1935  1.00272266    15
INTELSAT 21             
1 38749C 12045A   20216.00000000 -.00000195  00000-0  00000-0 0  2162
2 38749   0.0188 102.5524 0002469  27.2953 124.1759  1.00271471    11
INTELSAT 21         [PM]
1 38749C 12045A   20218.85913194 -.00002751  00000-0  00000-0 0  2186
2 38749   0.0000 148.5413 0002355 346.9558  70.6222  1.00273141    13
INTELSAT 21             
1 38749C 12045A   20219.00000000 -.00000173  00000-0  00000-0 0  2194
2 38749   0.0001 148.3561 0002376 347.7708 120.8443  1.00273234    11
INTELSAT 23             
1 38867C 12057A   20216.00000000 -.00000189  00000-0  00000-0 0  2169
2 38867   0.0227 215.3564 0002202 277.0667 126.6095  1.00270735    17
INTELSAT 23         [PM]
1 38867C 12057A   20217.50260417 -.00000195  00000-0  00000-0 0  2173
2 38867   0.0180 198.1412 0002199 300.3209 302.9847  1.00270369    19
INTELSAT 23             
1 38867C 12057A   20219.00000000 -.00000264  00000-0  00000-0 0  2199
2 38867   0.0299 220.8707 0002137 281.1636 119.9433  1.00269604    19
INTELSAT 30             
1 40271C 14062A   20216.00000000 -.00000060  00000-0  00000-0 0  2167
2 40271   0.0026  87.4459 0002092  16.4901 113.0266  1.00270613    15
